[{"OBJECT_NAME":"STARLINK-1554","OBJECT_ID":"2020-055AE","EPOCH":"2026-03-09T13:18:17.384832","MEAN_MOTION":15.30224882,"ECCENTRICITY":0.0001418,"INCLINATION":53.1583,"RA_OF_ASC_NODE":114.6651,"ARG_OF_PERICENTER":88.592,"MEAN_ANOMALY":271.5243,"EPHEMERIS_TYPE":0,"CLASSIFICATION_TYPE":"U","NORAD_CAT_ID":46055,"ELEMENT_SET_NO":999,"REV_AT_EPOCH":30905,"BSTAR":0.00040484,"MEAN_MOTION_DOT":0.00011659,"MEAN_MOTION_DDOT":0},{"OBJECT_NAME":"NOAA 17 DEB","OBJECT_ID":"2002-032DK","EPOCH":"2026-03-06T06:53:22.349472","MEAN_MOTION":15.29547844,"ECCENTRICITY":0.00135803,"INCLINATION":98.6735,"RA_OF_ASC_NODE":77.6727,"ARG_OF_PERICENTER":131.2945,"MEAN_ANOMALY":228.9463,"EPHEMERIS_TYPE":0,"CLASSIFICATION_TYPE":"U","NORAD_CAT_ID":49481,"ELEMENT_SET_NO":999,"REV_AT_EPOCH":24998,"BSTAR":0.011623019,"MEAN_MOTION_DOT":0.00349096,"MEAN_MOTION_DDOT":0}]
